[Satellite]
VERSION=1.1
NAME=GPS BIIR-9  (PRN 21)
NICKNAME=GPS BIIR-9  (PRN 21)
TLE1=1 27704U 03010A   20157.19791948 -.00000088  00000-0  00000+0 0  9993
TLE2=2 27704  54.6167  53.4985 0241405 284.0708 257.7185  2.00392704125910
STATUS=0
